LEMUR-2-ANDIS           
1 42838U 17042P   26068.55941107  .00023598  00000+0  79875-3 0  9998
2 42838  97.3659 249.7950 0009101   4.3248 355.8070 15.30557934473198
STARLINK-35783          
1 66286U 25247X   26068.62206745  .00037214  00000+0  12624-2 0  9995
2 66286  53.1586 191.7313 0000889  80.2019 279.9082 15.30198250 21024
